{
"type": "FeatureCollection",
"name": "chilwa_basin",
"crs": { "type": "name", "properties": { "name": "urn:ogc:def:crs:OGC:1.3:CRS84" } },
"features": [
{ "type": "Feature", "properties": { }, "geometry": { "type": "Polygon", "coordinates": [ [ [ 36.23785807291668, -15.593376329210052 ], [ 36.243408881293419, -15.58785332573783 ], [ 36.245833333333358, -15.5875 ], [ 36.246186659071199, -15.585075547960052 ], [ 36.249646674262166, -15.581591118706577 ], [ 36.25, -15.579166666666648 ], [ 36.253315734863293, -15.578315904405363 ], [ 36.255017598470069, -15.571684095594602 ], [ 36.260543823242202, -15.570266045464392 ], [ 36.269913567437086, -15.561917114257794 ], [ 36.27083333333335, -15.558333333333314 ], [ 36.27083333333335, -15.55 ], [ 36.271400621202275, -15.535289510091124 ], [ 36.278599378797765, -15.527210489908835 ], [ 36.279733954535608, -15.522789510091124 ], [ 36.282766045464427, -15.518877156575503 ], [ 36.284184265136737, -15.513350762261265 ], [ 36.28971048990887, -15.511932712131054 ], [ 36.295214165581612, -15.507342868381057 ], [ 36.295833333333348, -15.495833333333316 ], [ 36.29526604546443, -15.493622843424461 ], [ 36.283900621202271, -15.481377156575501 ], [ 36.282482401529975, -15.475850762261263 ], [ 36.279166666666683, -15.475 ], [ 36.277006530761739, -15.475617472330713 ], [ 36.272993469238301, -15.478549194335919 ], [ 36.262030877007405, -15.479784138997376 ], [ 36.256326802571628, -15.475617472330711 ], [ 36.252006530761733, -15.474382527669251 ], [ 36.247993469238295, -15.471450805664041 ], [ 36.2436731974284, -15.470215861002584 ], [ 36.23966013590497, -15.467284138997377 ], [ 36.227006530761734, -15.466049194335923 ], [ 36.221568806966161, -15.461700100368905 ], [ 36.22009819878474, -15.446635945638 ], [ 36.210339864095069, -15.445215861002584 ], [ 36.206326802571631, -15.442284138997373 ], [ 36.202006530761736, -15.441049194335918 ], [ 36.19656880696617, -15.436700100368906 ], [ 36.195215691460518, -15.422839694552932 ], [ 36.192284308539506, -15.418826972113695 ], [ 36.191666666666684, -15.416666666666648 ], [ 36.191313340928829, -15.414242214626718 ], [ 36.187514580620679, -15.410416666666649 ], [ 36.191313340928836, -15.406591118706579 ], [ 36.192019992404532, -15.401742214626717 ], [ 36.199646674262176, -15.39409111870658 ], [ 36.200353325737865, -15.385075547960048 ], [ 36.203813340928832, -15.381591118706577 ], [ 36.204519992404521, -15.376742214626718 ], [ 36.207980007595502, -15.373257785373246 ], [ 36.20833333333335, -15.370833333333314 ], [ 36.207980007595502, -15.36840888129338 ], [ 36.204519992404521, -15.36492445203991 ], [ 36.203813340928839, -15.360075547960047 ], [ 36.198290167914521, -15.354524739583313 ], [ 36.193408881293429, -15.353813340928799 ], [ 36.187858072916676, -15.348290337456579 ], [ 36.187146674262159, -15.343408881293382 ], [ 36.179519992404529, -15.335757785373243 ], [ 36.178813340928833, -15.330908881293382 ], [ 36.16912180582684, -15.321191067165778 ], [ 36.164242214626761, -15.320480007595467 ], [ 36.156591118706608, -15.312853325737827 ], [ 36.154166666666683, -15.3125 ], [ 36.151742214626751, -15.312146674262133 ], [ 36.146191406250026, -15.306623670789909 ], [ 36.14583333333335, -15.304166666666642 ], [ 36.14583333333335, -15.3 ], [ 36.148257785373275, -15.299646674262132 ], [ 36.151742214626744, -15.296186659071157 ], [ 36.154166666666683, -15.295833333333311 ], [ 36.15637715657553, -15.296400621202237 ], [ 36.161004299587688, -15.299986775716128 ], [ 36.166099378797753, -15.293877156575501 ], [ 36.167233954535604, -15.272789510091124 ], [ 36.170266045464423, -15.268877156575499 ], [ 36.171456909179703, -15.246742418077234 ], [ 36.175, -15.245833333333312 ], [ 36.175353325737866, -15.235075547960047 ], [ 36.187146674262166, -15.223257785373242 ], [ 36.1875, -15.220833333333317 ], [ 36.187853325737862, -15.218408881293383 ], [ 36.199646674262176, -15.206591118706578 ], [ 36.2, -15.204166666666646 ], [ 36.199338785807306, -15.196732923719598 ], [ 36.195833333333354, -15.195833333333312 ], [ 36.193408881293422, -15.195480007595465 ], [ 36.189924452039946, -15.192019992404493 ], [ 36.175, -15.191666666666647 ], [ 36.172575547960086, -15.192019992404495 ], [ 36.169091118706611, -15.195480007595465 ], [ 36.164242214626761, -15.196186659071161 ], [ 36.156249830457917, -15.204153781466992 ], [ 36.144091118706619, -15.192019992404493 ], [ 36.126742214626752, -15.191313340928797 ], [ 36.123257785373283, -15.187853325737827 ], [ 36.1125, -15.1875 ], [ 36.111932712131093, -15.164456176757787 ], [ 36.108900621202274, -15.160543823242165 ], [ 36.107766045464423, -15.151956176757791 ], [ 36.104733954535604, -15.148043823242165 ], [ 36.10359937879776, -15.135289510091123 ], [ 36.100567287868941, -15.131377156575498 ], [ 36.099149068196638, -15.12585076226126 ], [ 36.093622843424498, -15.12443271213105 ], [ 36.088155958387603, -15.119873385959176 ], [ 36.086932712131095, -15.106122843424457 ], [ 36.083900621202268, -15.102210489908831 ], [ 36.083333333333343, -15.1 ], [ 36.076742214626755, -15.09964667426213 ], [ 36.073257785373279, -15.096186659071158 ], [ 36.069120449490043, -15.095480007595466 ], [ 36.064924452039946, -15.099646674262134 ], [ 36.045833333333348, -15.1 ], [ 36.043711005316865, -15.099344550238696 ], [ 36.039622328016506, -15.096488783094596 ], [ 36.034316338433172, -15.094850328233482 ], [ 36.03235032823352, -15.088483005099803 ], [ 36.025812615288643, -15.086464436848935 ], [ 36.024187384711382, -15.076035563151022 ], [ 36.017383490668408, -15.073934597439218 ], [ 36.015926615397149, -15.050692749023417 ], [ 35.991666666666696, -15.05 ], [ 35.989531622992644, -15.049357096354138 ], [ 35.977135043674068, -15.038142903645809 ], [ 35.971552361382393, -15.036462063259526 ], [ 35.970094129774317, -15.017441474066818 ], [ 35.9625, -15.016666666666648 ], [ 35.961390855577278, -15.020649888780358 ], [ 35.9563395182292, -15.024395073784699 ], [ 35.947827148437533, -15.025604926215255 ], [ 35.942207166883719, -15.029771592881923 ], [ 35.934049479166696, -15.028336927625844 ], [ 35.932618204752629, -15.013339233398414 ], [ 35.927172851562531, -15.008938259548584 ], [ 35.914493815104187, -15.007728407118032 ], [ 35.910506184895866, -15.004771592881921 ], [ 35.900790066189273, -15.003390502929669 ], [ 35.896438259548646, -14.998006184895814 ], [ 35.895118204752634, -14.984172566731747 ], [ 35.88967285156253, -14.979771592881916 ], [ 35.885327148437533, -14.978561740451365 ], [ 35.881339518229197, -14.975604926215254 ], [ 35.875, -14.975 ], [ 35.874112616644993, -14.971541680230009 ], [ 35.864456176757841, -14.970266045464388 ], [ 35.860543823242217, -14.967233954535565 ], [ 35.851956176757838, -14.966099378797718 ], [ 35.848043823242215, -14.963067287868901 ], [ 35.839456176757849, -14.961932712131048 ], [ 35.835543823242219, -14.958900621202229 ], [ 35.8186228434245, -14.957766045464385 ], [ 35.814710489908883, -14.954733954535566 ], [ 35.8125, -14.954166666666643 ], [ 35.804166666666696, -14.954166666666643 ], [ 35.739242214626763, -14.954519992404489 ], [ 35.735757785373295, -14.957980007595465 ], [ 35.729166666666693, -14.958333333333314 ], [ 35.705908881293432, -14.958686659071157 ], [ 35.702424452039956, -14.962146674262129 ], [ 35.695833333333361, -14.9625 ], [ 35.691666666666698, -14.9625 ], [ 35.689531792534751, -14.961857096354144 ], [ 35.685468207465306, -14.958976236979145 ], [ 35.683011542426243, -14.957690429687478 ], [ 35.677134874131973, -14.961857096354144 ], [ 35.668698459201416, -14.96314290364581 ], [ 35.662927924262178, -14.967234293619768 ], [ 35.646554904513927, -14.96591864691838 ], [ 35.645190429687538, -14.943698459201368 ], [ 35.625642903645861, -14.922968207465257 ], [ 35.624357096354196, -14.914531792534698 ], [ 35.621476236979191, -14.910468207465254 ], [ 35.620833333333358, -14.908333333333307 ], [ 35.620480007595518, -14.901742214626715 ], [ 35.617019992404543, -14.898257785373241 ], [ 35.616313340928848, -14.885075547960048 ], [ 35.60662163628475, -14.875357733832439 ], [ 35.601742214626761, -14.874646674262129 ], [ 35.589924452039959, -14.862853325737825 ], [ 35.585075547960102, -14.86214667426213 ], [ 35.575354682074682, -14.852452256944421 ], [ 35.575, -14.845833333333308 ], [ 35.572575547960099, -14.845480007595462 ], [ 35.564924452039961, -14.837853325737823 ], [ 35.560075547960096, -14.837146674262128 ], [ 35.550353664822076, -14.827451070149717 ], [ 35.55, -14.804166666666642 ], [ 35.550353325737873, -14.797575547960044 ], [ 35.553813340928848, -14.794091118706572 ], [ 35.554519992404536, -14.785784064398845 ], [ 35.54412163628475, -14.775357733832442 ], [ 35.541666666666693, -14.775 ], [ 35.541099378797767, -14.785543823242163 ], [ 35.538067287868948, -14.789456176757792 ], [ 35.536532253689266, -14.795437452528191 ], [ 35.531377156575537, -14.79943271213105 ], [ 35.525661214192738, -14.800899590386262 ], [ 35.524338785807316, -14.815767076280359 ], [ 35.520833333333357, -14.816666666666638 ], [ 35.521186659071205, -14.82742445203991 ], [ 35.524646674262172, -14.830908881293375 ], [ 35.525, -14.833333333333309 ], [ 35.525353325737875, -14.835757785373238 ], [ 35.528813340928849, -14.839242214626713 ], [ 35.529166666666697, -14.854166666666641 ], [ 35.529519992404538, -14.856591118706575 ], [ 35.533686659071208, -14.860786946614558 ], [ 35.532980007595512, -14.869091118706574 ], [ 35.529519992404538, -14.872575547960045 ], [ 35.528813340928849, -14.88992445203991 ], [ 35.525014580620685, -14.89375 ], [ 35.528813340928849, -14.897575547960043 ], [ 35.529519992404538, -14.919091118706577 ], [ 35.537853325737878, -14.927450900607615 ], [ 35.537146674262182, -14.939924452039907 ], [ 35.533686659071208, -14.943408881293378 ], [ 35.532977973090304, -14.952452935112824 ], [ 35.523257785373289, -14.962146674262129 ], [ 35.516666666666687, -14.9625 ], [ 35.514242214626755, -14.962853325737825 ], [ 35.510757785373293, -14.966313340928792 ], [ 35.508333333333361, -14.966666666666644 ], [ 35.507766045464443, -14.973043823242163 ], [ 35.504733954535617, -14.976956176757787 ], [ 35.503599378797773, -14.981377156575494 ], [ 35.496400621202291, -14.989456176757791 ], [ 35.495129055447073, -14.999080403645808 ], [ 35.48971048990888, -15.00359937879772 ], [ 35.484184095594642, -15.005017428927925 ], [ 35.482766045464437, -15.010543823242164 ], [ 35.479733954535618, -15.01445617675779 ], [ 35.478198920355929, -15.020437282986089 ], [ 35.473043823242215, -15.024432712131054 ], [ 35.468622843424505, -15.025567287868901 ], [ 35.464710489908882, -15.028599378797722 ], [ 35.456122843424509, -15.029733954535569 ], [ 35.452210489908879, -15.032766045464387 ], [ 35.445833333333361, -15.033333333333308 ], [ 35.445480007595506, -15.035757785373242 ], [ 35.442019992404539, -15.039242214626711 ], [ 35.441666666666698, -15.041666666666643 ], [ 35.4375, -15.041666666666647 ], [ 35.437857733832494, -15.044120958116293 ], [ 35.451742214626762, -15.057980007595464 ], [ 35.454166666666701, -15.05833333333331 ], [ 35.453813340928853, -15.064924452039913 ], [ 35.449646674262169, -15.069120279947894 ], [ 35.450353325737872, -15.07325778537324 ], [ 35.454519992404542, -15.077453613281229 ], [ 35.453810628255233, -15.085787963867164 ], [ 35.448257785373286, -15.091313340928796 ], [ 35.443376329210096, -15.09202473958331 ], [ 35.437853325737883, -15.097575547960048 ], [ 35.437146674262181, -15.102424452039907 ], [ 35.429519992404543, -15.110075547960045 ], [ 35.429166666666696, -15.1125 ], [ 35.425758870442728, -15.113552178276887 ], [ 35.42434455023875, -15.127122328016471 ], [ 35.420540703667562, -15.132568020290776 ], [ 35.396570502387178, -15.134070502387132 ], [ 35.395177883572082, -15.156288994683138 ], [ 35.39232211642797, -15.160377671983484 ], [ 35.391666666666694, -15.179166666666644 ], [ 35.375913492838571, -15.179774305555533 ], [ 35.374149237738735, -15.186649237738692 ], [ 35.367517428927975, -15.188350762261264 ], [ 35.36609937879777, -15.1938771565755 ], [ 35.362103949652813, -15.199032253689213 ], [ 35.356122843424508, -15.200567287868902 ], [ 35.348043823242207, -15.207766045464393 ], [ 35.339456176757835, -15.208900621202236 ], [ 35.317557440863737, -15.229862806532093 ], [ 35.316666666666684, -15.233333333333309 ], [ 35.316099378797766, -15.235543823242162 ], [ 35.313067287868947, -15.239456176757795 ], [ 35.311932712131103, -15.252210489908833 ], [ 35.308900621202284, -15.256122843424457 ], [ 35.307701958550368, -15.273997328016474 ], [ 35.289710489908877, -15.291099378797725 ], [ 35.284184095594647, -15.292517428927932 ], [ 35.282766045464435, -15.298043823242169 ], [ 35.279733954535615, -15.301956176757795 ], [ 35.27916666666669, -15.316666666666645 ], [ 35.279519992404538, -15.319091118706577 ], [ 35.282980007595512, -15.322575547960049 ], [ 35.28333333333336, -15.325 ], [ 35.28333333333336, -15.329166666666644 ], [ 35.282672119140656, -15.336600409613695 ], [ 35.275661214192731, -15.338399590386263 ], [ 35.274432712131109, -15.352210489908835 ], [ 35.267233954535605, -15.360289510091128 ], [ 35.266666666666694, -15.3625 ], [ 35.264242214626762, -15.362853325737829 ], [ 35.239924452039958, -15.387146674262132 ], [ 35.2375, -15.3875 ], [ 35.237146674262171, -15.38992445203991 ], [ 35.233686659071203, -15.393408881293379 ], [ 35.232980007595508, -15.398257785373241 ], [ 35.229519992404541, -15.401742214626717 ], [ 35.228813340928845, -15.406591118706579 ], [ 35.225353325737878, -15.41007554796005 ], [ 35.225, -15.429166666666651 ], [ 35.224432712131104, -15.4313771565755 ], [ 35.221400621202278, -15.435289510091128 ], [ 35.220266045464435, -15.439710489908835 ], [ 35.217233954535615, -15.443622843424464 ], [ 35.21581590440541, -15.449149237738691 ], [ 35.2125, -15.45 ], [ 35.210075547960102, -15.450353325737826 ], [ 35.204524739583356, -15.455876329210055 ], [ 35.203813340928839, -15.460757785373241 ], [ 35.198290337456612, -15.46630859374998 ], [ 35.195833333333354, -15.466666666666649 ], [ 35.195833333333361, -15.470833333333314 ], [ 35.195480007595506, -15.47325778537324 ], [ 35.192019992404539, -15.476742214626718 ], [ 35.191313340928843, -15.48159111870658 ], [ 35.187853325737869, -15.485075547960054 ], [ 35.187144300672777, -15.494121297200499 ], [ 35.181591118706628, -15.499646674262134 ], [ 35.179166666666688, -15.5 ], [ 35.17859937879777, -15.506377156575503 ], [ 35.175468614366345, -15.510416666666645 ], [ 35.179733954535614, -15.515920003255191 ], [ 35.17859937879777, -15.518877156575503 ], [ 35.175567287868951, -15.522789510091124 ], [ 35.174432712131107, -15.527210489908835 ], [ 35.171400621202281, -15.531122843424459 ], [ 35.17026604546443, -15.556377156575502 ], [ 35.167233954535618, -15.560289510091129 ], [ 35.166099378797767, -15.568877156575505 ], [ 35.163067287868948, -15.572789510091129 ], [ 35.161791653103322, -15.582445949978281 ], [ 35.158333333333353, -15.583333333333316 ], [ 35.158686659071208, -15.606591118706579 ], [ 35.167019992404541, -15.614950900607621 ], [ 35.166313340928852, -15.627424452039913 ], [ 35.162853325737878, -15.630908881293387 ], [ 35.1625, -15.6375 ], [ 35.156122843424505, -15.638067287868907 ], [ 35.152210489908882, -15.641099378797724 ], [ 35.146471150716174, -15.642572360568558 ], [ 35.145266045464439, -15.660543823242168 ], [ 35.142233954535612, -15.664456176757792 ], [ 35.141099378797769, -15.668877156575503 ], [ 35.13806728786895, -15.672789510091125 ], [ 35.136932712131099, -15.690451727973073 ], [ 35.141666666666701, -15.691666666666654 ], [ 35.140529378255231, -15.696097819010399 ], [ 35.134079996744816, -15.691099378797725 ], [ 35.125899590386318, -15.692402140299462 ], [ 35.117233954535614, -15.701956176757795 ], [ 35.116099378797777, -15.706377156575503 ], [ 35.113067287868944, -15.710289510091133 ], [ 35.1125, -15.7125 ], [ 35.112146674262178, -15.714924452039913 ], [ 35.108686659071203, -15.718408881293382 ], [ 35.107980007595508, -15.73159111870658 ], [ 35.104519992404533, -15.735075547960054 ], [ 35.103813340928845, -15.74409111870658 ], [ 35.100353325737871, -15.747575547960052 ], [ 35.099646674262182, -15.760757785373247 ], [ 35.096186659071208, -15.764242214626719 ], [ 35.09583333333336, -15.766666666666652 ], [ 35.09583333333336, -15.770833333333318 ], [ 35.098043823242215, -15.770266045464393 ], [ 35.101956176757845, -15.767233954535573 ], [ 35.107482571072062, -15.765815904405367 ], [ 35.109548272026935, -15.757766045464393 ], [ 35.115839301215303, -15.759148830837654 ], [ 35.124432712131103, -15.76862284342446 ], [ 35.125850762261308, -15.774149237738698 ], [ 35.131377156575546, -15.775567287868908 ], [ 35.13528951009117, -15.778599378797725 ], [ 35.143877156575542, -15.779733954535573 ], [ 35.147789510091165, -15.782766045464392 ], [ 35.164710489908877, -15.783900621202239 ], [ 35.168622843424501, -15.78693271213106 ], [ 35.174417114257835, -15.788419596354148 ], [ 35.182766045464433, -15.79778951009113 ], [ 35.184548272026937, -15.804733954535575 ], [ 35.191099378797759, -15.798043823242173 ], [ 35.192517428927978, -15.792517428927932 ], [ 35.195833333333361, -15.79166666666665 ], [ 35.195266045464429, -15.789456176757795 ], [ 35.191099378797766, -15.78407999674477 ], [ 35.192233954535617, -15.781122843424463 ], [ 35.203599378797762, -15.768877156575506 ], [ 35.204827880859398, -15.755066257052935 ], [ 35.2121039496528, -15.753198920355883 ], [ 35.216099378797765, -15.748043823242169 ], [ 35.217233954535615, -15.743622843424461 ], [ 35.232766045464437, -15.727210489908837 ], [ 35.234232923719645, -15.721494547526024 ], [ 35.24804382324222, -15.720266045464392 ], [ 35.253420003255236, -15.716099378797724 ], [ 35.256377156575539, -15.717233954535574 ], [ 35.260289510091162, -15.720266045464395 ], [ 35.29804382324221, -15.721400621202239 ], [ 35.30739610460072, -15.729733954535575 ], [ 35.356377156575547, -15.728599378797727 ], [ 35.360289510091171, -15.725567287868904 ], [ 35.3625, -15.725 ], [ 35.362857733832492, -15.727454291449636 ], [ 35.376742214626759, -15.741313340928802 ], [ 35.385757785373286, -15.742019992404497 ], [ 35.389242214626762, -15.74548000759547 ], [ 35.398257785373289, -15.746186659071165 ], [ 35.401742214626765, -15.749646674262141 ], [ 35.406591118706629, -15.750353325737834 ], [ 35.410075547960098, -15.753813340928803 ], [ 35.419091118706625, -15.754519992404495 ], [ 35.426742214626763, -15.762146674262137 ], [ 35.435757785373291, -15.762853325737833 ], [ 35.439242214626759, -15.766313340928802 ], [ 35.441666666666691, -15.766666666666652 ], [ 35.443877156575546, -15.766099378797726 ], [ 35.44778951009117, -15.763067287868909 ], [ 35.464710489908882, -15.761932712131062 ], [ 35.474062771267384, -15.753599378797727 ], [ 35.477210489908884, -15.754733954535574 ], [ 35.490678575303853, -15.767233954535573 ], [ 35.523043823242212, -15.766099378797726 ], [ 35.528420003255242, -15.761932712131062 ], [ 35.549012925889784, -15.763123236762135 ], [ 35.553599378797777, -15.768622843424463 ], [ 35.55538160536026, -15.775567287868908 ], [ 35.564710489908883, -15.774432712131064 ], [ 35.568622843424507, -15.77140062120224 ], [ 35.579166666666694, -15.770833333333318 ], [ 35.579784138997418, -15.777160305447033 ], [ 35.582715861002633, -15.781173027886267 ], [ 35.583950805664088, -15.785493638780364 ], [ 35.586882527669296, -15.789506361219599 ], [ 35.588310411241338, -15.799318101670991 ], [ 35.618673027886302, -15.828549194335919 ], [ 35.62488606770836, -15.830325317382796 ], [ 35.628549194335967, -15.835339694552937 ], [ 35.629872300889787, -15.853359646267345 ], [ 35.640694851345515, -15.854935031466999 ], [ 35.642284138997432, -15.860493638780369 ], [ 35.645215861002633, -15.864506361219602 ], [ 35.646450805664088, -15.872993638780365 ], [ 35.649382527669296, -15.877006361219603 ], [ 35.65, -15.87916666666665 ], [ 35.657561916775208, -15.879938083224793 ], [ 35.65833333333336, -15.8875 ], [ 35.66576707628041, -15.888161214192678 ], [ 35.666666666666693, -15.891666666666653 ], [ 35.666313340928852, -15.898257785373236 ], [ 35.662853325737878, -15.901742214626704 ], [ 35.6625, -15.904166666666633 ], [ 35.6625, -15.908333333333303 ], [ 35.664710489908884, -15.907766045464378 ], [ 35.668622843424508, -15.904733954535558 ], [ 35.702210489908886, -15.903599378797709 ], [ 35.707196044921901, -15.89973534478078 ], [ 35.709548272026929, -15.908900621202225 ], [ 35.73971048990888, -15.907766045464378 ], [ 35.743622843424511, -15.904733954535555 ], [ 35.74804382324222, -15.903599378797709 ], [ 35.751956176757844, -15.900567287868894 ], [ 35.756377156575553, -15.899432712131043 ], [ 35.76445617675784, -15.892233954535559 ], [ 35.773043823242226, -15.89109937879771 ], [ 35.776956176757842, -15.888067287868891 ], [ 35.79492763943145, -15.886862352159255 ], [ 35.797048272026942, -15.878599378797711 ], [ 35.802210489908887, -15.879733954535556 ], [ 35.806122843424511, -15.882766045464383 ], [ 35.81054382324222, -15.883900621202226 ], [ 35.814456176757844, -15.886932712131044 ], [ 35.816666666666698, -15.8875 ], [ 35.82299363878041, -15.886882527669254 ], [ 35.827006361219645, -15.883950805664044 ], [ 35.842135959201421, -15.882715861002584 ], [ 35.847839694552974, -15.886882527669256 ], [ 35.850736829969648, -15.888117472330711 ], [ 35.860339694552984, -15.879784138997376 ], [ 35.875469292534746, -15.878549194335923 ], [ 35.881173027886319, -15.882715861002588 ], [ 35.886573621961837, -15.884259711371511 ], [ 35.888117472330762, -15.889660305447032 ], [ 35.891049194335963, -15.893673027886269 ], [ 35.89290907118059, -15.900178697374114 ], [ 35.902006361219655, -15.892284138997379 ], [ 35.911794365776942, -15.890859646267348 ], [ 35.913117472330761, -15.872839694552935 ], [ 35.920215861002625, -15.864660305447028 ], [ 35.920833333333363, -15.85416666666665 ], [ 35.921186659071211, -15.830908881293388 ], [ 35.924985419379368, -15.827083333333317 ], [ 35.920480007595515, -15.822546386718736 ], [ 35.921192423502632, -15.81837531195745 ], [ 35.926742214626763, -15.81285332573783 ], [ 35.933333333333366, -15.8125 ], [ 35.933994547526069, -15.805066257052935 ], [ 35.939710489908883, -15.803599378797731 ], [ 35.94375, -15.8004686143663 ], [ 35.947789510091177, -15.803599378797731 ], [ 35.956377156575549, -15.804733954535575 ], [ 35.960289510091187, -15.807766045464396 ], [ 35.968877156575552, -15.808900621202239 ], [ 35.972789510091175, -15.811932712131059 ], [ 35.977210489908884, -15.813067287868911 ], [ 35.98125, -15.816198052300326 ], [ 35.985416666666687, -15.812968614366303 ], [ 35.989456176757841, -15.81609937879773 ], [ 35.991666666666696, -15.816666666666652 ], [ 35.992517428927982, -15.813350762261265 ], [ 35.99804382324222, -15.811932712131059 ], [ 36.006122843424507, -15.804733954535575 ], [ 36.010543823242216, -15.803599378797731 ], [ 36.014456176757854, -15.800567287868903 ], [ 36.018877156575556, -15.799432712131059 ], [ 36.022789510091179, -15.79640062120224 ], [ 36.028315904405417, -15.79498257107203 ], [ 36.029733954535622, -15.789456176757795 ], [ 36.032766045464449, -15.78554382324217 ], [ 36.034301079644131, -15.779562717013873 ], [ 36.039456176757845, -15.775567287868908 ], [ 36.053267076280413, -15.774338785807274 ], [ 36.055017428927982, -15.767517428927937 ], [ 36.058333333333366, -15.766666666666652 ], [ 36.058686659071206, -15.764242214626719 ], [ 36.066313340928836, -15.756591118706579 ], [ 36.066666666666684, -15.754166666666649 ], [ 36.066313340928836, -15.751742214626717 ], [ 36.062853325737862, -15.748257785373244 ], [ 36.0625, -15.745833333333316 ], [ 36.062853325737862, -15.718408881293385 ], [ 36.066313340928836, -15.714924452039913 ], [ 36.067019992404532, -15.710784233940959 ], [ 36.058686659071199, -15.70242445203991 ], [ 36.058333333333373, -15.683333333333316 ], [ 36.06164906819663, -15.684184095594601 ], [ 36.0625, -15.6875 ], [ 36.081591118706612, -15.687146674262136 ], [ 36.089242214626751, -15.679519992404497 ], [ 36.091666666666683, -15.679166666666651 ], [ 36.092019992404531, -15.676742214626717 ], [ 36.095480007595505, -15.673257785373247 ], [ 36.096186659071194, -15.668408881293384 ], [ 36.099985419379358, -15.664583333333312 ], [ 36.09584791395401, -15.660416666666649 ], [ 36.099646674262168, -15.656591118706581 ], [ 36.1, -15.645833333333316 ], [ 36.102424452039948, -15.645480007595467 ], [ 36.11214226616756, -15.635788302951367 ], [ 36.112853325737866, -15.630908881293387 ], [ 36.120480007595503, -15.623257785373246 ], [ 36.120833333333351, -15.620833333333318 ], [ 36.125, -15.620833333333319 ], [ 36.127424452039946, -15.620480007595468 ], [ 36.130908881293422, -15.617019992404497 ], [ 36.1375, -15.616666666666646 ], [ 36.138380940755226, -15.620099216037309 ], [ 36.146770562065981, -15.621400621202239 ], [ 36.156122843424498, -15.613067287868905 ], [ 36.173043823242203, -15.611932712131058 ], [ 36.176956176757834, -15.60890062120224 ], [ 36.181377156575536, -15.607766045464393 ], [ 36.18528951009116, -15.604733954535568 ], [ 36.193877156575539, -15.603599378797721 ], [ 36.197789510091162, -15.600567287868905 ], [ 36.203315734863303, -15.599149237738699 ], [ 36.20416666666668, -15.595833333333315 ], [ 36.2375, -15.595833333333315 ], [ 36.23785807291668, -15.593376329210052 ] ] ] } }
]
}
